NORAD_CAT_ID,OBJECT_NAME,OBJECT_TYPE,EPOCH,MEAN_MOTION,ECCENTRICITY,INCLINATION,RA_OF_ASC_NODE,ARG_OF_PERICENTER,MEAN_ANOMALY,BSTAR,MEAN_MOTION_DOT,MEAN_MOTION_DDOT,TLE_LINE0,TLE_LINE1,TLE_LINE2,SEMIMAJOR_AXIS,PERIOD,APOGEE,PERIGEE,DECAYED
53431.0,STARLINK-4548,PAYLOAD,2024-03-22 06:31:08,15.0885619,0.0001728,53.2174,84.3487,108.8538,251.2641,7.8191e-05,9.57e-06,0.0,0 STARLINK-4548,1 53431U 22097AV  24082.27162850  .00000957  00000-0  78191-4 0  9994,2 53431  53.2174  84.3487 0001728 108.8538 251.2641 15.08856190 90480,6917.831,95.437,540.891,538.501,0.0
53431.0,STARLINK-4548,PAYLOAD,2024-03-23 04:46:34,15.0883628,0.0001589,53.2172,80.1851,95.8831,264.2342,3.8399e-05,3.23e-06,0.0,0 STARLINK-4548,1 53431U 22097AV  24083.19900607  .00000323  00000-0  38399-4 0  9999,2 53431  53.2172  80.1851 0001589  95.8831 264.2342 15.08836280 90146,6917.892,95.438,540.856,538.658,0.0
53431.0,STARLINK-4548,PAYLOAD,2024-03-23 09:32:43,15.08836008,0.0001769,53.2166,79.2921,100.0674,260.0518,5.1269e-05,5.28e-06,0.0,0 STARLINK-4548,1 53431U 22097AV  24083.39772673  .00000528  00000-0  51269-4 0  9999,2 53431  53.2166  79.2921 0001769 100.0674 260.0518 15.08836008 90653,6917.893,95.438,540.981,538.534,0.0
53431.0,STARLINK-4548,PAYLOAD,2024-03-24 06:12:42,15.08857886,0.0001676,53.2177,75.4301,86.7178,273.4006,0.00013727,1.898e-05,0.0,0 STARLINK-4548,1 53431U 22097AV  24084.25883023  .00001898  00000-0  13727-3 0  9994,2 53431  53.2177  75.4301 0001676  86.7178 273.4006 15.08857886 90300,6917.826,95.436,540.85,538.531,0.0
53431.0,STARLINK-4548,PAYLOAD,2024-03-24 09:23:28,15.08863613,0.0001535,53.2169,74.8322,96.4646,263.652,0.00011486,1.542e-05,0.0,0 STARLINK-4548,1 53431U 22097AV  24084.39130414  .00001542  00000-0  11486-3 0  9994,2 53431  53.2169  74.8322 0001535  96.4646 263.6520 15.08863613 90801,6917.808,95.436,540.735,538.611,0.0
53431.0,STARLINK-4548,PAYLOAD,2024-03-25 06:03:30,15.08846332,0.0001282,53.2157,70.967,89.6098,270.5041,0.00019769,2.86e-05,0.0,0 STARLINK-4548,1 53431U 22097AV  24085.25244097  .00002860  00000-0  19769-3 0  9999,2 53431  53.2157  70.9670 0001282  89.6098 270.5041 15.08846332 90450,6917.861,95.437,540.613,538.839,0.0
53431.0,STARLINK-4548,PAYLOAD,2024-03-25 15:35:49,15.08844996,0.0001058,53.2156,69.1777,72.7501,287.3607,0.00010322,1.356e-05,0.0,0 STARLINK-4548,1 53431U 22097AV  24085.64987971  .00001356  00000-0  10322-3 0  9992,2 53431  53.2156  69.1777 0001058  72.7501 287.3607 15.08844996 90997,6917.865,95.437,540.462,538.998,0.0
53431.0,STARLINK-4548,PAYLOAD,2024-03-26 04:18:56,15.08817974,0.0001526,53.2176,66.8089,101.1484,258.9679,-0.00033836,-5.666e-05,0.0,0 STARLINK-4548,1 53431U 22097AV  24086.17981861 -.00005666  00000-0 -33836-3 0  9998,2 53431  53.2176  66.8089 0001526 101.1484 258.9679 15.08817974 90591,6917.948,95.439,540.868,538.757,0.0
53431.0,STARLINK-4548,PAYLOAD,2024-03-26 07:29:42,15.08817412,0.0001786,53.2163,66.2079,74.8544,285.2646,-0.00026747,-4.54e-05,0.0,0 STARLINK-4548,1 53431U 22097AV  24086.31230106 -.00004540  00000-0 -26747-3 0  9996,2 53431  53.2163  66.2079 0001786  74.8544 285.2646 15.08817412 91091,6917.949,95.439,541.05,538.579,0.0
53431.0,STARLINK-4548,PAYLOAD,2024-03-26 15:26:38,15.08825846,0.00015,53.218,64.7233,88.058,272.0584,2.3802e-05,9.1e-07,0.0,0 STARLINK-4548,1 53431U 22097AV  24086.64350108  .00000091  00000-0  23802-4 0  9992,2 53431  53.2180  64.7233 0001500  88.0580 272.0584 15.08825846 90663,6917.924,95.438,540.826,538.751,0.0
53431.0,STARLINK-4548,PAYLOAD,2024-03-27 04:09:43,15.08844615,0.0001235,53.2164,62.3432,81.5169,278.5963,0.00061599,9.53e-05,0.0,0 STARLINK-4548,1 53431U 22097AV  24087.17342120  .00009530  00000-0  61599-3 0  9997,2 53431  53.2164  62.3432 0001235  81.5169 278.5963 15.08844615 90742,6917.866,95.437,540.586,538.877,0.0
53431.0,STARLINK-4548,PAYLOAD,2024-03-27 07:20:29,15.08861235,0.0001233,53.2164,61.748,80.4186,279.6945,0.0014658,0.00023131,0.0,0 STARLINK-4548,1 53431U 22097AV  24087.30590166  .00023131  00000-0  14658-2 0  9993,2 53431  53.2164  61.7480 0001233  80.4186 279.6945 15.08861235 90764,6917.815,95.436,540.533,538.828,0.0
53431.0,STARLINK-4548,PAYLOAD,2024-03-27 15:17:25,15.08857512,0.0001151,53.2163,60.2604,90.1022,270.0102,0.00072147,0.00011218,0.0,0 STARLINK-4548,1 53431U 22097AV  24087.63709927  .00011218  00000-0  72147-3 0  9997,2 53431  53.2163  60.2604 0001151  90.1022 270.0102 15.08857512 90810,6917.827,95.436,540.488,538.896,0.0
53431.0,STARLINK-4548,PAYLOAD,2024-03-28 04:00:30,15.08856142,0.0001545,53.2168,57.8796,88.4379,271.679,0.00077727,0.00012109,0.0,0 STARLINK-4548,1 53431U 22097AV  24088.16701720  .00012109  00000-0  77727-3 0  9998,2 53431  53.2168  57.8796 0001545  88.4379 271.6790 15.08856142 90897,6917.831,95.437,540.765,538.627,0.0
53431.0,STARLINK-4548,PAYLOAD,2024-03-28 07:11:16,15.08858962,0.0001529,53.2177,57.283,89.834,270.2827,0.00058879,9.1e-05,0.0,0 STARLINK-4548,1 53431U 22097AV  24088.29949463  .00009100  00000-0  58879-3 0  9994,2 53431  53.2177  57.2830 0001529  89.8340 270.2827 15.08858962 91399,6917.822,95.436,540.745,538.63,0.0
53431.0,STARLINK-4548,PAYLOAD,2024-03-28 21:29:44,15.08841337,0.000109,53.2176,54.609,98.3523,261.7592,-2.3736e-05,-6.66e-06,0.0,0 STARLINK-4548,1 53431U 22097AV  24088.89565594 -.00000666  00000-0 -23736-4 0  9994,2 53431  53.2176  54.6090 0001090  98.3523 261.7592 15.08841337 91008,6917.876,95.437,540.495,538.987,0.0
53431.0,STARLINK-4548,PAYLOAD,2024-03-29 03:51:16,15.08849238,0.0002052,53.2175,53.4196,133.3986,226.7177,0.00019401,2.802e-05,0.0,0 STARLINK-4548,1 53431U 22097AV  24089.16061248  .00002802  00000-0  19401-3 0  9997,2 53431  53.2175  53.4196 0002052 133.3986 226.7177 15.08849238 91045,6917.852,95.437,541.137,538.298,0.0
53431.0,STARLINK-4548,PAYLOAD,2024-03-29 21:20:31,15.0884972,0.0001627,53.2174,50.1528,88.6961,271.4218,0.00026529,3.938e-05,0.0,0 STARLINK-4548,1 53431U 22097AV  24089.88925505  .00003938  00000-0  26529-3 0  9991,2 53431  53.2174  50.1528 0001627  88.6961 271.4218 15.08849720 91150,6917.851,95.437,540.841,538.59,0.0
53431.0,STARLINK-4548,PAYLOAD,2024-03-30 06:52:50,15.0885965,0.000154,53.2173,48.3677,96.8409,263.2758,0.00049389,7.585e-05,0.0,0 STARLINK-4548,1 53431U 22097AV  24090.28668993  .00007585  00000-0  49389-3 0  9993,2 53431  53.2173  48.3677 0001540  96.8409 263.2758 15.08859650 91695,6917.82,95.436,540.751,538.62,0.0
53431.0,STARLINK-4548,PAYLOAD,2024-03-30 21:11:18,15.08838895,0.0001298,53.2169,45.692,89.3807,270.7334,8.6583e-05,1.09e-05,0.0,0 STARLINK-4548,1 53431U 22097AV  24090.88285673  .00001090  00000-0  86583-4 0  9992,2 53431  53.2169  45.6920 0001298  89.3807 270.7334 15.08838895 91309,6917.884,95.438,540.647,538.851,0.0
53431.0,STARLINK-4548,PAYLOAD,2024-03-31 06:43:37,15.08849464,0.0001188,53.2174,43.9071,90.7678,269.345,0.00053,8.159e-05,0.0,0 STARLINK-4548,1 53431U 22097AV  24091.28029565  .00008159  00000-0  53000-3 0  9993,2 53431  53.2174  43.9071 0001188  90.7678 269.3450 15.08849464 91849,6917.851,95.437,540.538,538.895,0.0
53431.0,STARLINK-4548,PAYLOAD,2024-04-01 03:23:37,15.08857156,0.0001094,53.2175,40.0405,90.7325,269.3793,0.00069361,0.00010773,0.0,0 STARLINK-4548,1 53431U 22097AV  24092.14141198  .00010773  00000-0  69361-3 0  9998,2 53431  53.2175  40.0405 0001094  90.7325 269.3793 15.08857156 91492,6917.828,95.436,540.45,538.936,0.0
53431.0,STARLINK-4548,PAYLOAD,2024-04-01 12:55:56,15.08853801,0.000115,53.2188,38.2588,95.0737,265.0386,0.00041622,6.345e-05,0.0,0 STARLINK-4548,1 53431U 22097AV  24092.53885004  .00006345  00000-0  41622-3 0  9992,2 53431  53.2188  38.2588 0001150  95.0737 265.0386 15.08853801 92030,6917.838,95.437,540.499,538.908,0.0
53431.0,STARLINK-4548,PAYLOAD,2024-04-01 20:52:52,15.08845671,0.0001997,53.2185,36.7706,87.0366,273.0854,0.00014105,1.958e-05,0.0,0 STARLINK-4548,1 53431U 22097AV  24092.87005361  .00001958  00000-0  14105-3 0  9990,2 53431  53.2185  36.7706 0001997  87.0366 273.0854 15.08845671 91607,6917.863,95.437,541.11,538.347,0.0
53431.0,STARLINK-4548,PAYLOAD,2024-04-02 12:46:44,15.08833396,0.000103,53.2177,33.8001,91.2099,268.9011,1.1415e-05,-1.06e-06,0.0,0 STARLINK-4548,1 53431U 22097AV  24093.53245761 -.00000106  00000-0  11415-4 0  9991,2 53431  53.2177  33.8001 0001030  91.2099 268.9011 15.08833396 91702,6917.901,95.438,540.478,539.053,0.0
53431.0,STARLINK-4548,PAYLOAD,2024-04-03 12:37:31,15.08838061,0.0001364,53.2191,29.34,97.5764,262.5383,0.00015254,2.14e-05,0.0,0 STARLINK-4548,1 53431U 22097AV  24094.52606386  .00002140  00000-0  15254-3 0  9998,2 53431  53.2191  29.3400 0001364  97.5764 262.5383 15.08838061 92335,6917.886,95.438,540.695,538.808,0.0
53431.0,STARLINK-4548,PAYLOAD,2024-04-04 04:31:23,15.08845694,0.000133,53.2183,26.3654,97.093,263.0213,0.00033905,5.113e-05,0.0,0 STARLINK-4548,1 53431U 22097AV  24095.18846304  .00005113  00000-0  33905-3 0  9993,2 53431  53.2183  26.3654 0001330  97.0930 263.0213 15.08845694 91952,6917.863,95.437,540.648,538.808,0.0
53431.0,STARLINK-4548,PAYLOAD,2024-04-04 12:28:18,15.08847103,0.000119,53.2175,24.8766,79.6207,280.4919,0.00032786,4.935e-05,0.0,0 STARLINK-4548,1 53431U 22097AV  24095.51966226  .00004935  00000-0  32786-3 0  9993,2 53431  53.2175  24.8766 0001190  79.6207 280.4919 15.08847103 92489,6917.859,95.437,540.547,538.9,0.0
53431.0,STARLINK-4548,PAYLOAD,2024-04-04 22:00:37,15.08842109,0.0001231,53.2172,23.0925,81.1422,278.9709,0.00011959,1.616e-05,0.0,0 STARLINK-4548,1 53431U 22097AV  24095.91710327  .00001616  00000-0  11959-3 0  9998,2 53431  53.2172  23.0925 0001231  81.1422 278.9709 15.08842109 92544,6917.874,95.437,540.591,538.887,0.0
53431.0,STARLINK-4548,PAYLOAD,2024-04-05 12:19:05,15.08848832,0.0001248,53.2176,20.417,83.9799,276.1335,0.00018733,2.695e-05,0.0,0 STARLINK-4548,1 53431U 22097AV  24096.51325914  .00002695  00000-0  18733-3 0  9994,2 53431  53.2176  20.4170 0001248  83.9799 276.1335 15.08848832 92157,6917.853,95.437,540.582,538.855,0.0
